[{"OBJECT_ID":"2015-022A","OBJECT_NAME":"THOR 7","NORAD_CAT_ID":"40613","OBJECT_TYPE":"PAYLOAD","PERIOD":"1436.078","INCLINATION":"0.0344","APOGEE":"35796.727","PERIGEE":"35775.754","ECCENTRICITY":"0.0002487","MEAN_MOTION":"1.00273055","TLE_LINE1":"1 40613U 15022A   16238.07472141 -.00000034 +00000-0 +00000-0 0  9998","TLE_LINE2":"2 40613 000.0344 239.4609 0002487 281.2404 199.3031 01.00273055004904","LAUNCH_DATE":"2015-04-26","LAUNCH_SITE":"FRENCH GUIANA","OWNER":"NORWAY","ORBIT_TYPE":"Geosynchronous","OPERATIONAL_STATUS":"Operational","satInfo":{"lng":16.915974304161736,"lat":-1.8473140900746592,"elevation":-10.372832790648996,"azimuth":298.0840256958383,"range":42849.56107420406,"height":35793.026738627785,"velocity":3.0747541737398945},"x":77,"y":-270,"dx":2.941717241002206,"dy":0.8946579809744456},{"OBJECT_ID":"2015-026A","OBJECT_NAME":"DIRECTV 15","NORAD_CAT_ID":"40663","OBJECT_TYPE":"PAYLOAD","PERIOD":"1436.187","INCLINATION":"0.022","APOGEE":"35791.336","PERIGEE":"35785.407","ECCENTRICITY":"7.03e-05","MEAN_MOTION":"1.00265454","TLE_LINE1":"1 40663U 15026A   16238.35752070 -.00000128 +00000-0 +00000-0 0  9994","TLE_LINE2":"2 40663 000.0220 100.6367 0000703 195.0819 064.2685 01.00265454004609","LAUNCH_DATE":"2015-05-27","LAUNCH_SITE":"FRENCH GUIANA","OWNER":"UNITED STATES OF AMERICA","ORBIT_TYPE":"Geosynchronous","OPERATIONAL_STATUS":"Operational","satInfo":{"lng":-108.28013826511472,"lat":-2.0866517395434045,"elevation":-10.60680092194953,"azimuth":63.280138265114694,"range":42869.01289166367,"height":35786.32564288066,"velocity":3.074739368734872},"x":-254,"y":88,"dx":-0.9644329469474203,"dy":-2.9195703924533887},{"OBJECT_ID":"2012-035E","OBJECT_NAME":"MSG 3 DEB (COOLER COVER)","NORAD_CAT_ID":"40871","OBJECT_TYPE":"DEBRIS","PERIOD":"1418.465","INCLINATION":"1.6273","APOGEE":"35579.751","PERIGEE":"35301.805","ECCENTRICITY":"0.0033232","MEAN_MOTION":"1.01518138","TLE_LINE1":"1 40871U 12035E   16239.41377436 -.00000184  00000-0  00000+0 0  9990","TLE_LINE2":"2 40871   1.6273 100.7768 0033232 179.0080  85.1063  1.01518138 14835","LAUNCH_DATE":"2012-07-05","LAUNCH_SITE":"FRENCH GUIANA","OWNER":"EUROPEAN ORGANIZATION FOR THE EXPLOITATION OF METEOROLOGICAL SATELLITES","ORBIT_TYPE":"Unclassified","OPERATIONAL_STATUS":"N/A, space debris","satInfo":{"lng":-10.16520796910217,"lat":2.2521747321968015,"elevation":-6.4101965568725054,"azimuth":325.16520796910214,"range":42187.24445862328,"height":35577.73165272318,"velocity":3.0773263028864695},"x":-47,"y":-276,"dx":3.0290213846580234,"dy":-0.5431083001771347},{"OBJECT_ID":"2015-068A","OBJECT_NAME":"TELSTAR 12V","NORAD_CAT_ID":"41036","OBJECT_TYPE":"PAYLOAD","PERIOD":"1436.098","INCLINATION":"0.0119","APOGEE":"35795.513","PERIGEE":"35777.737","ECCENTRICITY":"0.0002108","MEAN_MOTION":"1.00271683","TLE_LINE1":"1 41036U 15068A   16239.11171681 -.00000147  00000-0  00000+0 0  9993","TLE_LINE2":"2 41036   0.0119 156.8323 0002108  23.2155 179.9452  1.00271683  2810","LAUNCH_DATE":"2015-11-24","LAUNCH_SITE":"TANEGASHIMA SPACE CENTER","OWNER":"CANADA","ORBIT_TYPE":"Geosynchronous","OPERATIONAL_STATUS":"Operational","satInfo":{"lng":-139.67355549499206,"lat":-0.501966499655915,"elevation":-9.067744537754956,"azimuth":94.67355549499207,"range":42676.928458781294,"height":35767.06031983614,"velocity":3.0751350864504365},"x":-173,"y":215,"dx":-2.344389895538259,"dy":-1.9900481947974638},{"OBJECT_ID":"2016-004B","OBJECT_NAME":"ARIANE 5 R/B","NORAD_CAT_ID":"41309","OBJECT_TYPE":"ROCKET BODY","PERIOD":"626.170","INCLINATION":"0.478","APOGEE":"35426.656","PERIGEE":"307.032","ECCENTRICITY":"0.7242659","MEAN_MOTION":"2.29969388","TLE_LINE1":"1 41309U 16004B   16238.61829022  .00000612  00000-0  51634-3 0  9999","TLE_LINE2":"2 41309   0.4780 176.8779 7242659  31.5345  77.9122  2.29969388  4850","LAUNCH_DATE":"2016-01-27","LAUNCH_SITE":"FRENCH GUIANA","OWNER":"FRANCE","ORBIT_TYPE":"Highly Elliptical Orbit","OPERATIONAL_STATUS":"N/A, derelict rocket body","satInfo":{"lng":0.07817463322398621,"lat":0.8213271766012984,"elevation":-8.42590431622183,"azimuth":314.921825366776,"range":39559.94976521274,"height":32758.82664267023,"velocity":1.963217390071296},"x":0,"y":-258,"dx":1.9632155627085401,"dy":0.0026786222841234768},{"OBJECT_ID":"2016-014A","OBJECT_NAME":"EUTE 65W","NORAD_CAT_ID":"41382","OBJECT_TYPE":"PAYLOAD","PERIOD":"1436.057","INCLINATION":"0.0473","APOGEE":"35792.953","PERIGEE":"35778.684","ECCENTRICITY":"0.0001692","MEAN_MOTION":"1.0027456","TLE_LINE1":"1 41382U 16014A   16238.25353987 -.00000302  00000-0  00000+0 0  9997","TLE_LINE2":"2 41382   0.0473 329.3030 0001692 230.6988 159.9862  1.00274560  1723","LAUNCH_DATE":"2016-03-09","LAUNCH_SITE":"FRENCH GUIANA","OWNER":"EUROPEAN TELECOMMUNICATIONS SATELLITE ORGANIZATION (EUTELSAT)","ORBIT_TYPE":"Geosynchronous","OPERATIONAL_STATUS":"Operational","satInfo":{"lng":-77.41283865801404,"lat":1.2468295315887068,"elevation":-7.350025850733169,"azimuth":32.41283865801404,"range":42524.08514508109,"height":35806.51078303335,"velocity":3.073714454802381},"x":-261,"y":-62,"dx":0.6698378564939816,"dy":-2.9998396283249287},{"OBJECT_ID":"2016-014B","OBJECT_NAME":"ARIANE 5 R/B","NORAD_CAT_ID":"41383","OBJECT_TYPE":"ROCKET BODY","PERIOD":"618.509","INCLINATION":"0.8595","APOGEE":"35138.953","PERIGEE":"198.406","ECCENTRICITY":"0.7265109","MEAN_MOTION":"2.32817923","TLE_LINE1":"1 41383U 16014B   16238.60969353  .00014742  97915-7  12012-2 0  9996","TLE_LINE2":"2 41383   0.8595  42.8498 7265109 281.5241   4.1007  2.32817923  3907","LAUNCH_DATE":"2016-03-09","LAUNCH_SITE":"FRENCH GUIANA","OWNER":"FRANCE","ORBIT_TYPE":"Highly Elliptical Orbit","OPERATIONAL_STATUS":"N/A, derelict rocket body","satInfo":{"lng":77.88607570170392,"lat":-0.2772792037348105,"elevation":-13.32618373896251,"azimuth":237.11392429829604,"range":28154.694312156935,"height":21018.774201119464,"velocity":3.2752004880805834},"x":153,"y":-35,"dx":0.6873210708170248,"dy":3.202269192734151},{"OBJECT_ID":"2015-075D","OBJECT_NAME":"BREEZE-M DEB","NORAD_CAT_ID":"41543","OBJECT_TYPE":"DEBRIS","PERIOD":"1367.406","INCLINATION":"0.5619","APOGEE":"35470.677","PERIGEE":"33391.560","ECCENTRICITY":"0.0254736","MEAN_MOTION":"1.05308829","TLE_LINE1":"1 41543U 15075D   16234.46320362 -.00000156  00000-0  00000+0 0  9999","TLE_LINE2":"2 41543   0.5619 104.3093 0254736  55.9013 200.8037  1.05308829  2301","LAUNCH_DATE":"2015-12-13","LAUNCH_SITE":"TYURATAM MISSILE AND SPACE COMPLEX","OWNER":"COMMONWEALTH OF INDEPENDENT STATES","ORBIT_TYPE":"Unclassified","OPERATIONAL_STATUS":"N/A, space debris","satInfo":{"lng":-77.40156342069173,"lat":-1.5432318775054075,"elevation":-10.217776145429747,"azimuth":32.40156342069173,"range":42127.027714012635,"height":35095.80974152099,"velocity":3.074831258020226},"x":-256,"y":-60,"dx":0.670671775339843,"dy":-3.000797666464827},{"OBJECT_ID":"2015-075E","OBJECT_NAME":"BREEZE-M DEB","NORAD_CAT_ID":"41544","OBJECT_TYPE":"DEBRIS","PERIOD":"1362.593","INCLINATION":"0.5382","APOGEE":"35550.786","PERIGEE":"33119.811","ECCENTRICITY":"0.0298547","MEAN_MOTION":"1.05680816","TLE_LINE1":"1 41544U 15075E   16237.47823666 -.00000155  00000-0  00000+0 0  9998","TLE_LINE2":"2 41544   0.5382 118.1042 0298547  42.9023 200.1357  1.05680816  2342","LAUNCH_DATE":"2015-12-13","LAUNCH_SITE":"TYURATAM MISSILE AND SPACE COMPLEX","OWNER":"COMMONWEALTH OF INDEPENDENT STATES","ORBIT_TYPE":"Unclassified","OPERATIONAL_STATUS":"N/A, space debris","satInfo":{"lng":-37.98525977869907,"lat":-0.3773284834565716,"elevation":-9.23462828195228,"azimuth":352.9852597786991,"range":41284.24870488354,"height":34371.928136287956,"velocity":3.1261945608805055},"x":-158,"y":-213,"dx":2.4639700032420566,"dy":-1.9240437249714974},{"OBJECT_ID":"2015-075F","OBJECT_NAME":"BREEZE-M DEB","NORAD_CAT_ID":"41545","OBJECT_TYPE":"DEBRIS","PERIOD":"1363.184","INCLINATION":"0.5382","APOGEE":"35409.955","PERIGEE":"33284.189","ECCENTRICITY":"0.0260989","MEAN_MOTION":"1.05634993","TLE_LINE1":"1 41545U 15075F   16235.67824173 -.00000091 +00000-0 +00000-0 0  9993","TLE_LINE2":"2 41545 000.5382 121.5247 0260989 043.4208 195.8531 01.05634993002336","LAUNCH_DATE":"2015-12-13","LAUNCH_SITE":"TYURATAM MISSILE AND SPACE COMPLEX","OWNER":"COMMONWEALTH OF INDEPENDENT STATES","ORBIT_TYPE":"Unclassified","OPERATIONAL_STATUS":"N/A, space debris","satInfo":{"lng":105.45643197752197,"lat":1.8660796839689955,"elevation":-7.211304926064035,"azimuth":209.543568022478,"range":40281.477283176224,"height":33605.89402451446,"velocity":3.186003039616336},"x":242,"y":70,"dx":-0.8490874893431436,"dy":3.0707760914605107},{"OBJECT_ID":"2015-075G","OBJECT_NAME":"BREEZE-M DEB","NORAD_CAT_ID":"41546","OBJECT_TYPE":"DEBRIS","PERIOD":"1376.156","INCLINATION":"0.5543","APOGEE":"35616.607","PERIGEE":"33593.449","ECCENTRICITY":"0.0246828","MEAN_MOTION":"1.04639232","TLE_LINE1":"1 41546U 15075G   16237.77216399 -.00000198  00000-0  00000+0 0  9999","TLE_LINE2":"2 41546   0.5543 131.4778 0246828  18.7716 211.1783  1.04639232  2320","LAUNCH_DATE":"2015-12-13","LAUNCH_SITE":"TYURATAM MISSILE AND SPACE COMPLEX","OWNER":"COMMONWEALTH OF INDEPENDENT STATES","ORBIT_TYPE":"Unclassified","OPERATIONAL_STATUS":"N/A, space debris","satInfo":{"lng":-144.87926329005444,"lat":-1.7906209941532285,"elevation":-10.362062393033925,"azimuth":99.87926329005444,"range":42623.312524636065,"height":35570.48584054821,"velocity":3.0460699704465495},"x":-153,"y":229,"dx":-2.491507210466135,"dy":-1.7524080817696261}]